STARLINK-4572           
1 53692U 22105AW  26068.67304046  .00012459  00000+0  56421-3 0  9998
2 53692  97.6182 315.6347 0001842  18.3505 341.7796 15.21020685193556
LUMELITE-4              
1 56309U 23057B   26068.50336543  .00014689  00000+0  62211-3 0  9993
2 56309   9.9925  94.5306 0004008  70.4016 289.6633 15.19877406158858
